{"type": "FeatureCollection", "features": [ {"type": "Feature", "properties": {"norad_id": 34738, "name": "COSMOS 2251 DEB", "group": "cosmos-2251-debris", "lat": -46.7202059226544, "lon": 115.16541246955023, "alt_km": 715.6854272905903, "timestamp": "2025-12-18T07:01:54.984572+00:00", "meta": {"OBJECT_NAME": "COSMOS 2251 DEB", "OBJECT_ID": "1993-036ZG", "EPOCH": "2025-12-17T20:20:18.130848", "MEAN_MOTION": 14.46314232, "ECCENTRICITY": 0.00474677, "INCLINATION": 74.0152, "RA_OF_ASC_NODE": 133.7197, "ARG_OF_PERICENTER": 279.036, "MEAN_ANOMALY": 232.5228, "EPHEMERIS_TYPE": 0, "CLASSIFICATION_TYPE": "U", "NORAD_CAT_ID": 34738, "ELEMENT_SET_NO": 999, "REV_AT_EPOCH": 87932, "BSTAR": 0.00027183749, "MEAN_MOTION_DOT": 9.6e-06, "MEAN_MOTION_DDOT": 0}, "tle": {"line1": "1 34738U 93036ZG  25351.84743207  .00000960  00000+0  27184-3 0  9996", "line2": "2 34738  74.0152 133.7197 0047467 279.0360 232.5228 14.46314232879325"}}, "geometry": {"type": "Point", "coordinates": [115.16541246955023, -46.7202059226544]}}, {"type": "Feature", "properties": {"norad_id": 34750, "name": "COSMOS 2251 DEB", "group": "cosmos-2251-debris", "lat": 45.75614529326456, "lon": -151.81092640631658, "alt_km": 686.3238324976091, "timestamp": "2025-12-18T07:01:54.984582+00:00", "meta": {"OBJECT_NAME": "COSMOS 2251 DEB", "OBJECT_ID": "1993-036ZU", "EPOCH": "2025-12-17T14:38:28.998240", "MEAN_MOTION": 14.61368851, "ECCENTRICITY": 0.00386303, "INCLINATION": 74.1067, "RA_OF_ASC_NODE": 192.4788, "ARG_OF_PERICENTER": 143.9032, "MEAN_ANOMALY": 273.3438, "EPHEMERIS_TYPE": 0, "CLASSIFICATION_TYPE": "U", "NORAD_CAT_ID": 34750, "ELEMENT_SET_NO": 999, "REV_AT_EPOCH": 88302, "BSTAR": 0.00077634105, "MEAN_MOTION_DOT": 3.852e-05, "MEAN_MOTION_DDOT": 0}, "tle": {"line1": "1 34750U 93036ZU  25351.61005785  .00003852  00000+0  77634-3 0  9995", "line2": "2 34750  74.1067 192.4788 0038630 143.9032 273.3438 14.61368851883021"}}, "geometry": {"type": "Point", "coordinates": [-151.81092640631658, 45.75614529326456]}}, {"type": "Feature", "properties": {"norad_id": 34752, "name": "COSMOS 2251 DEB", "group": "cosmos-2251-debris", "lat": -58.09669965108132, "lon": -163.27581918053764, "alt_km": 592.8800324357198, "timestamp": "2025-12-18T07:01:54.984592+00:00", "meta": {"OBJECT_NAME": "COSMOS 2251 DEB", "OBJECT_ID": "1993-036ZW", "EPOCH": "2025-12-17T17:09:20.535264", "MEAN_MOTION": 15.00039181, "ECCENTRICITY": 0.00475985, "INCLINATION": 74.0128, "RA_OF_ASC_NODE": 350.4783, "ARG_OF_PERICENTER": 117.1852, "MEAN_ANOMALY": 243.4199, "EPHEMERIS_TYPE": 0, "CLASSIFICATION_TYPE": "U", "NORAD_CAT_ID": 34752, "ELEMENT_SET_NO": 999, "REV_AT_EPOCH": 89924, "BSTAR": 0.00068787506, "MEAN_MOTION_DOT": 8.741e-05, "MEAN_MOTION_DDOT": 0}, "tle": {"line1": "1 34752U 93036ZW  25351.71482101  .00008741  00000+0  68788-3 0  9991", "line2": "2 34752  74.0128 350.4783 0047598 117.1852 243.4199 15.00039181899245"}}, "geometry": {"type": "Point", "coordinates": [-163.27581918053764, -58.09669965108132]}}, {"type": "Feature", "properties": {"norad_id": 34754, "name": "COSMOS 2251 DEB", "group": "cosmos-2251-debris", "lat": 66.81406566268326, "lon": -4.628681165457465, "alt_km": 764.9115251267385, "timestamp": "2025-12-18T07:01:54.984602+00:00", "meta": {"OBJECT_NAME": "COSMOS 2251 DEB", "OBJECT_ID": "1993-036ZY", "EPOCH": "2025-12-17T19:26:41.695584", "MEAN_MOTION": 14.40488838, "ECCENTRICITY": 0.00297683, "INCLINATION": 74.0297, "RA_OF_ASC_NODE": 218.2236, "ARG_OF_PERICENTER": 333.3654, "MEAN_ANOMALY": 150.7482, "EPHEMERIS_TYPE": 0, "CLASSIFICATION_TYPE": "U", "NORAD_CAT_ID": 34754, "ELEMENT_SET_NO": 999, "REV_AT_EPOCH": 88206, "BSTAR": 0.00017291249, "MEAN_MOTION_DOT": 5.26e-06, "MEAN_MOTION_DDOT": 0}, "tle": {"line1": "1 34754U 93036ZY  25351.81020481  .00000526  00000+0  17291-3 0  9999", "line2": "2 34754  74.0297 218.2236 0029768 333.3654 150.7482 14.40488838882066"}}, "geometry": {"type": "Point", "coordinates": [-4.628681165457465, 66.81406566268326]}}, {"type": "Feature", "properties": {"norad_id": 34755, "name": "COSMOS 2251 DEB", "group": "cosmos-2251-debris", "lat": -32.99115729327032, "lon": 111.88660085546688, "alt_km": 1039.830028334287, "timestamp": "2025-12-18T07:01:54.984612+00:00", "meta": {"OBJECT_NAME": "COSMOS 2251 DEB", "OBJECT_ID": "1993-036ZZ", "EPOCH": "2025-12-17T05:50:06.069984", "MEAN_MOTION": 13.50569003, "ECCENTRICITY": 0.04081843, "INCLINATION": 73.926, "RA_OF_ASC_NODE": 282.7855, "ARG_OF_PERICENTER": 301.8273, "MEAN_ANOMALY": 214.5982, "EPHEMERIS_TYPE": 0, "CLASSIFICATION_TYPE": "U", "NORAD_CAT_ID": 34755, "ELEMENT_SET_NO": 999, "REV_AT_EPOCH": 82584, "BSTAR": 0.00078980416, "MEAN_MOTION_DOT": 8.28e-06, "MEAN_MOTION_DDOT": 0}, "tle": {"line1": "1 34755U 93036ZZ  25351.24312581  .00000828  00000+0  78980-3 0  9999", "line2": "2 34755  73.9260 282.7855 0408184 301.8273 214.5982 13.50569003825849"}}, "geometry": {"type": "Point", "coordinates": [111.88660085546688, -32.99115729327032]}}, {"type": "Feature", "properties": {"norad_id": 34756, "name": "COSMOS 2251 DEB", "group": "cosmos-2251-debris", "lat": 70.46854620024524, "lon": -138.72718873703275, "alt_km": 1166.1021207728945, "timestamp": "2025-12-18T07:01:54.984623+00:00", "meta": {"OBJECT_NAME": "COSMOS 2251 DEB", "OBJECT_ID": "1993-036AAA", "EPOCH": "2025-12-16T08:53:18.201984", "MEAN_MOTION": 13.67251835, "ECCENTRICITY": 0.03452801, "INCLINATION": 74.003, "RA_OF_ASC_NODE": 98.3991, "ARG_OF_PERICENTER": 333.4281, "MEAN_ANOMALY": 24.9484, "EPHEMERIS_TYPE": 0, "CLASSIFICATION_TYPE": "U", "NORAD_CAT_ID": 34756, "ELEMENT_SET_NO": 999, "REV_AT_EPOCH": 83471, "BSTAR": 0.00093292845, "MEAN_MOTION_DOT": 1.159e-05, "MEAN_MOTION_DDOT": 0}, "tle": {"line1": "1 34756U 93036AAA 25350.37034956  .00001159  00000+0  93293-3 0  9992", "line2": "2 34756  74.0030  98.3991 0345280 333.4281  24.9484 13.67251835834711"}}, "geometry": {"type": "Point", "coordinates": [-138.72718873703275, 70.46854620024524]}}, {"type": "Feature", "properties": {"norad_id": 34758, "name": "COSMOS 2251 DEB", "group": "cosmos-2251-debris", "lat": 24.472565326794413, "lon": -61.98943605827077, "alt_km": 787.7948507685423, "timestamp": "2025-12-18T07:01:54.984649+00:00", "meta": {"OBJECT_NAME": "COSMOS 2251 DEB", "OBJECT_ID": "1993-036AAC", "EPOCH": "2025-12-17T06:09:51.620544", "MEAN_MOTION": 13.58084731, "ECCENTRICITY": 0.03816404, "INCLINATION": 74.1075, "RA_OF_ASC_NODE": 292.2273, "ARG_OF_PERICENTER": 54.8808, "MEAN_ANOMALY": 308.7451, "EPHEMERIS_TYPE": 0, "CLASSIFICATION_TYPE": "U", "NORAD_CAT_ID": 34758, "ELEMENT_SET_NO": 999, "REV_AT_EPOCH": 82971, "BSTAR": 0.001447828, "MEAN_MOTION_DOT": 1.667e-05, "MEAN_MOTION_DDOT": 0}, "tle": {"line1": "1 34758U 93036AAC 25351.25684746  .00001667  00000+0  14478-2 0  9991", "line2": "2 34758  74.1075 292.2273 0381640  54.8808 308.7451 13.58084731829710"}}, "geometry": {"type": "Point", "coordinates": [-61.98943605827077, 24.472565326794413]}}, {"type": "Feature", "properties": {"norad_id": 34760, "name": "COSMOS 2251 DEB", "group": "cosmos-2251-debris", "lat": 62.520243661809424, "lon": -34.227137430925204, "alt_km": 812.4213718323854, "timestamp": "2025-12-18T07:01:54.984662+00:00", "meta": {"OBJECT_NAME": "COSMOS 2251 DEB", "OBJECT_ID": "1993-036AAE", "EPOCH": "2025-12-15T15:17:34.568160", "MEAN_MOTION": 14.19579445, "ECCENTRICITY": 0.00969523, "INCLINATION": 74.0638, "RA_OF_ASC_NODE": 297.1884, "ARG_OF_PERICENTER": 348.6722, "MEAN_ANOMALY": 190.5489, "EPHEMERIS_TYPE": 0, "CLASSIFICATION_TYPE": "U", "NORAD_CAT_ID": 34760, "ELEMENT_SET_NO": 999, "REV_AT_EPOCH": 86729, "BSTAR": 0.00062937679, "MEAN_MOTION_DOT": 1.367e-05, "MEAN_MOTION_DDOT": 0}, "tle": {"line1": "1 34760U 93036AAE 25349.63720565  .00001367  00000+0  62938-3 0  9995", "line2": "2 34760  74.0638 297.1884 0096952 348.6722 190.5489 14.19579445867299"}}, "geometry": {"type": "Point", "coordinates": [-34.227137430925204, 62.520243661809424]}}, {"type": "Feature", "properties": {"norad_id": 34761, "name": "COSMOS 2251 DEB", "group": "cosmos-2251-debris", "lat": -4.7434187127385385, "lon": -8.80385733826162, "alt_km": 745.3529692901557, "timestamp": "2025-12-18T07:01:54.984672+00:00", "meta": {"OBJECT_NAME": "COSMOS 2251 DEB", "OBJECT_ID": "1993-036AAF", "EPOCH": "2025-12-17T17:41:53.088864", "MEAN_MOTION": 14.38066764, "ECCENTRICITY": 0.00366688, "INCLINATION": 74.0291, "RA_OF_ASC_NODE": 353.5812, "ARG_OF_PERICENTER": 26.1853, "MEAN_ANOMALY": 334.1144, "EPHEMERIS_TYPE": 0, "CLASSIFICATION_TYPE": "U", "NORAD_CAT_ID": 34761, "ELEMENT_SET_NO": 999, "REV_AT_EPOCH": 87721, "BSTAR": 0.0004907903, "MEAN_MOTION_DOT": 1.472e-05, "MEAN_MOTION_DDOT": 0}, "tle": {"line1": "1 34761U 93036AAF 25351.73742001  .00001472  00000+0  49079-3 0  9997", "line2": "2 34761  74.0291 353.5812 0036668  26.1853 334.1144 14.38066764877217"}}, "geometry": {"type": "Point", "coordinates": [-8.80385733826162, -4.7434187127385385]}}, {"type": "Feature", "properties": {"norad_id": 34784, "name": "COSMOS 2251 DEB", "group": "cosmos-2251-debris", "lat": -37.98193082781866, "lon": -59.213982632862475, "alt_km": 729.5684043544825, "timestamp": "2025-12-18T07:01:54.984682+00:00", "meta": {"OBJECT_NAME": "COSMOS 2251 DEB", "OBJECT_ID": "1993-036AAM", "EPOCH": "2025-12-17T21:21:12.586464", "MEAN_MOTION": 14.60802578, "ECCENTRICITY": 0.00492348, "INCLINATION": 74.007, "RA_OF_ASC_NODE": 314.4975, "ARG_OF_PERICENTER": 122.3057, "MEAN_ANOMALY": 238.2892, "EPHEMERIS_TYPE": 0, "CLASSIFICATION_TYPE": "U", "NORAD_CAT_ID": 34784, "ELEMENT_SET_NO": 999, "REV_AT_EPOCH": 88610, "BSTAR": 0.00037594076, "MEAN_MOTION_DOT": 1.837e-05, "MEAN_MOTION_DDOT": 0}, "tle": {"line1": "1 34784U 93036AAM 25351.88972901  .00001837  00000+0  37594-3 0  9996", "line2": "2 34784  74.0070 314.4975 0049234 122.3057 238.2892 14.60802578886109"}}, "geometry": {"type": "Point", "coordinates": [-59.213982632862475, -37.98193082781866]}}]}